[{"OBJECT_NAME":"STARLINK-30838","OBJECT_ID":"2023-170F","EPOCH":"2025-09-25T07:45:16.475040","MEAN_MOTION":15.02533093,"ECCENTRICITY":0.00012751,"INCLINATION":43.0048,"RA_OF_ASC_NODE":14.5092,"ARG_OF_PERICENTER":255.2006,"MEAN_ANOMALY":104.8695,"EPHEMERIS_TYPE":0,"CLASSIFICATION_TYPE":"U","NORAD_CAT_ID":58211,"ELEMENT_SET_NO":999,"REV_AT_EPOCH":10540,"BSTAR":8.9661165e-5,"MEAN_MOTION_DOT":1.008e-5,"MEAN_MOTION_DDOT":0},{"OBJECT_NAME":"STARLINK-30837","OBJECT_ID":"2023-170G","EPOCH":"2025-09-25T08:04:27.193440","MEAN_MOTION":15.02529946,"ECCENTRICITY":0.00013952,"INCLINATION":43.0032,"RA_OF_ASC_NODE":14.5917,"ARG_OF_PERICENTER":281.5609,"MEAN_ANOMALY":78.5077,"EPHEMERIS_TYPE":0,"CLASSIFICATION_TYPE":"U","NORAD_CAT_ID":58212,"ELEMENT_SET_NO":999,"REV_AT_EPOCH":10540,"BSTAR":0.00011820567,"MEAN_MOTION_DOT":1.393e-5,"MEAN_MOTION_DDOT":0},{"OBJECT_NAME":"STARLINK-30813","OBJECT_ID":"2023-170H","EPOCH":"2025-09-24T15:43:11.970624","MEAN_MOTION":15.02531906,"ECCENTRICITY":0.00012035,"INCLINATION":43.0042,"RA_OF_ASC_NODE":18.0977,"ARG_OF_PERICENTER":252.3038,"MEAN_ANOMALY":107.7673,"EPHEMERIS_TYPE":0,"CLASSIFICATION_TYPE":"U","NORAD_CAT_ID":58213,"ELEMENT_SET_NO":999,"REV_AT_EPOCH":10530,"BSTAR":6.3271855e-5,"MEAN_MOTION_DOT":6.51e-6,"MEAN_MOTION_DDOT":0},{"OBJECT_NAME":"STARLINK-30805","OBJECT_ID":"2023-170J","EPOCH":"2025-09-24T14:02:40.603488","MEAN_MOTION":15.02533925,"ECCENTRICITY":0.00014002,"INCLINATION":43.0016,"RA_OF_ASC_NODE":18.4343,"ARG_OF_PERICENTER":258.4783,"MEAN_ANOMALY":101.5902,"EPHEMERIS_TYPE":0,"CLASSIFICATION_TYPE":"U","NORAD_CAT_ID":58214,"ELEMENT_SET_NO":999,"REV_AT_EPOCH":10529,"BSTAR":2.3975788e-5,"MEAN_MOTION_DOT":1.2e-6,"MEAN_MOTION_DDOT":0},{"OBJECT_NAME":"STARLINK-30851","OBJECT_ID":"2023-170K","EPOCH":"2025-09-24T15:33:36.455040","MEAN_MOTION":15.02531365,"ECCENTRICITY":9.885e-5,"INCLINATION":43.0029,"RA_OF_ASC_NODE":18.0472,"ARG_OF_PERICENTER":272.6906,"MEAN_ANOMALY":87.3823,"EPHEMERIS_TYPE":0,"CLASSIFICATION_TYPE":"U","NORAD_CAT_ID":58215,"ELEMENT_SET_NO":999,"REV_AT_EPOCH":10530,"BSTAR":-0.00010933572,"MEAN_MOTION_DOT":-1.68e-5,"MEAN_MOTION_DDOT":0},{"OBJECT_NAME":"STARLINK-30818","OBJECT_ID":"2023-170M","EPOCH":"2025-09-25T07:21:18.104256","MEAN_MOTION":15.02535175,"ECCENTRICITY":0.00012403,"INCLINATION":43.008,"RA_OF_ASC_NODE":14.3879,"ARG_OF_PERICENTER":261.7647,"MEAN_ANOMALY":98.3055,"EPHEMERIS_TYPE":0,"CLASSIFICATION_TYPE":"U","NORAD_CAT_ID":58217,"ELEMENT_SET_NO":999,"REV_AT_EPOCH":10540,"BSTAR":0.00060666721,"MEAN_MOTION_DOT":8.001e-5,"MEAN_MOTION_DDOT":0},{"OBJECT_NAME":"STARLINK-30794","OBJECT_ID":"2023-170N","EPOCH":"2025-09-24T14:17:03.176160","MEAN_MOTION":15.02535096,"ECCENTRICITY":0.00013199,"INCLINATION":43.0044,"RA_OF_ASC_NODE":18.4888,"ARG_OF_PERICENTER":265.8827,"MEAN_ANOMALY":94.1865,"EPHEMERIS_TYPE":0,"CLASSIFICATION_TYPE":"U","NORAD_CAT_ID":58218,"ELEMENT_SET_NO":999,"REV_AT_EPOCH":10529,"BSTAR":-2.5763392e-5,"MEAN_MOTION_DOT":-5.52e-6,"MEAN_MOTION_DDOT":0},{"OBJECT_NAME":"STARLINK-30835","OBJECT_ID":"2023-170P","EPOCH":"2025-09-25T07:11:42.497952","MEAN_MOTION":15.02545185,"ECCENTRICITY":5.373e-5,"INCLINATION":42.9991,"RA_OF_ASC_NODE":14.3311,"ARG_OF_PERICENTER":262.8528,"MEAN_ANOMALY":97.2253,"EPHEMERIS_TYPE":0,"CLASSIFICATION_TYPE":"U","NORAD_CAT_ID":58219,"ELEMENT_SET_NO":999,"REV_AT_EPOCH":10540,"BSTAR":-0.00015426446,"MEAN_MOTION_DOT":-2.287e-5,"MEAN_MOTION_DDOT":0},{"OBJECT_NAME":"STARLINK-30792","OBJECT_ID":"2023-170Q","EPOCH":"2025-09-24T08:46:43.590720","MEAN_MOTION":15.02530817,"ECCENTRICITY":0.00010099,"INCLINATION":43.0021,"RA_OF_ASC_NODE":19.3653,"ARG_OF_PERICENTER":267.8333,"MEAN_ANOMALY":92.2393,"EPHEMERIS_TYPE":0,"CLASSIFICATION_TYPE":"U","NORAD_CAT_ID":58220,"ELEMENT_SET_NO":999,"REV_AT_EPOCH":10526,"BSTAR":-3.8497906e-5,"MEAN_MOTION_DOT":-7.23e-6,"MEAN_MOTION_DDOT":0},{"OBJECT_NAME":"STARLINK-30836","OBJECT_ID":"2023-170R","EPOCH":"2025-09-24T08:41:56.175936","MEAN_MOTION":15.02540175,"ECCENTRICITY":1.411e-5,"INCLINATION":42.9992,"RA_OF_ASC_NODE":19.3388,"ARG_OF_PERICENTER":314.9723,"MEAN_ANOMALY":45.1108,"EPHEMERIS_TYPE":0,"CLASSIFICATION_TYPE":"U","NORAD_CAT_ID":58221,"ELEMENT_SET_NO":999,"REV_AT_EPOCH":10526,"BSTAR":-3.0115315e-5,"MEAN_MOTION_DOT":-6.1e-6,"MEAN_MOTION_DDOT":0},{"OBJECT_NAME":"STARLINK-30855","OBJECT_ID":"2023-170S","EPOCH":"2025-09-25T06:43:06.641472","MEAN_MOTION":15.02530197,"ECCENTRICITY":0.00011316,"INCLINATION":43.0029,"RA_OF_ASC_NODE":15.0246,"ARG_OF_PERICENTER":260.3686,"MEAN_ANOMALY":99.7029,"EPHEMERIS_TYPE":0,"CLASSIFICATION_TYPE":"U","NORAD_CAT_ID":58222,"ELEMENT_SET_NO":999,"REV_AT_EPOCH":10539,"BSTAR":0.00010472618,"MEAN_MOTION_DOT":1.211e-5,"MEAN_MOTION_DDOT":0},{"OBJECT_NAME":"STARLINK-30840","OBJECT_ID":"2023-170T","EPOCH":"2025-09-24T00:19:27.862752","MEAN_MOTION":15.02526214,"ECCENTRICITY":0.00017134,"INCLINATION":43.0067,"RA_OF_ASC_NODE":21.8656,"ARG_OF_PERICENTER":276.9912,"MEAN_ANOMALY":83.0736,"EPHEMERIS_TYPE":0,"CLASSIFICATION_TYPE":"U","NORAD_CAT_ID":58223,"ELEMENT_SET_NO":999,"REV_AT_EPOCH":10520,"BSTAR":0.0004889521,"MEAN_MOTION_DOT":6.406e-5,"MEAN_MOTION_DDOT":0},{"OBJECT_NAME":"STARLINK-30875","OBJECT_ID":"2023-170U","EPOCH":"2025-09-25T07:26:05.533728","MEAN_MOTION":15.0253136,"ECCENTRICITY":7.005e-5,"INCLINATION":43.0045,"RA_OF_ASC_NODE":14.395,"ARG_OF_PERICENTER":249.2853,"MEAN_ANOMALY":110.7914,"EPHEMERIS_TYPE":0,"CLASSIFICATION_TYPE":"U","NORAD_CAT_ID":58224,"ELEMENT_SET_NO":999,"REV_AT_EPOCH":10540,"BSTAR":0.00021208181,"MEAN_MOTION_DOT":2.662e-5,"MEAN_MOTION_DDOT":0},{"OBJECT_NAME":"STARLINK-30872","OBJECT_ID":"2023-170V","EPOCH":"2025-09-25T07:07:50.172672","MEAN_MOTION":15.27575687,"ECCENTRICITY":0.0001669,"INCLINATION":43.0048,"RA_OF_ASC_NODE":266.3532,"ARG_OF_PERICENTER":276.1513,"MEAN_ANOMALY":83.9148,"EPHEMERIS_TYPE":0,"CLASSIFICATION_TYPE":"U","NORAD_CAT_ID":58225,"ELEMENT_SET_NO":999,"REV_AT_EPOCH":10667,"BSTAR":2.1419535e-5,"MEAN_MOTION_DOT":3.27e-6,"MEAN_MOTION_DDOT":0},{"OBJECT_NAME":"STARLINK-30865","OBJECT_ID":"2023-170W","EPOCH":"2025-09-25T07:43:00.910848","MEAN_MOTION":15.02533899,"ECCENTRICITY":0.00011226,"INCLINATION":43.0019,"RA_OF_ASC_NODE":3.4481,"ARG_OF_PERICENTER":279.9292,"MEAN_ANOMALY":80.1423,"EPHEMERIS_TYPE":0,"CLASSIFICATION_TYPE":"U","NORAD_CAT_ID":58226,"ELEMENT_SET_NO":999,"REV_AT_EPOCH":10553,"BSTAR":0.00010127819,"MEAN_MOTION_DOT":1.165e-5,"MEAN_MOTION_DDOT":0},{"OBJECT_NAME":"STARLINK-30874","OBJECT_ID":"2023-170X","EPOCH":"2025-09-24T00:38:39.172992","MEAN_MOTION":15.02537709,"ECCENTRICITY":0.00011592,"INCLINATION":43.0016,"RA_OF_ASC_NODE":21.9664,"ARG_OF_PERICENTER":260.3364,"MEAN_ANOMALY":99.7347,"EPHEMERIS_TYPE":0,"CLASSIFICATION_TYPE":"U","NORAD_CAT_ID":58227,"ELEMENT_SET_NO":999,"REV_AT_EPOCH":10520,"BSTAR":8.0696547e-5,"MEAN_MOTION_DOT":8.87e-6,"MEAN_MOTION_DDOT":0},{"OBJECT_NAME":"STARLINK-30871","OBJECT_ID":"2023-170Y","EPOCH":"2025-09-24T00:33:51.327936","MEAN_MOTION":15.02538119,"ECCENTRICITY":0.00025447,"INCLINATION":43.0072,"RA_OF_ASC_NODE":21.9417,"ARG_OF_PERICENTER":271.1276,"MEAN_ANOMALY":88.9275,"EPHEMERIS_TYPE":0,"CLASSIFICATION_TYPE":"U","NORAD_CAT_ID":58228,"ELEMENT_SET_NO":999,"REV_AT_EPOCH":10520,"BSTAR":6.2605594e-5,"MEAN_MOTION_DOT":6.42e-6,"MEAN_MOTION_DDOT":0},{"OBJECT_NAME":"STARLINK-30861","OBJECT_ID":"2023-171A","EPOCH":"2025-09-24T18:04:02.296704","MEAN_MOTION":15.02532585,"ECCENTRICITY":7.786e-5,"INCLINATION":43.0019,"RA_OF_ASC_NODE":107.71,"ARG_OF_PERICENTER":237.6941,"MEAN_ANOMALY":122.3826,"EPHEMERIS_TYPE":0,"CLASSIFICATION_TYPE":"U","NORAD_CAT_ID":58230,"ELEMENT_SET_NO":999,"REV_AT_EPOCH":10476,"BSTAR":-1.2792418e-5,"MEAN_MOTION_DOT":-3.76e-6,"MEAN_MOTION_DDOT":0},{"OBJECT_NAME":"STARLINK-30867","OBJECT_ID":"2023-171B","EPOCH":"2025-09-23T07:02:48.588288","MEAN_MOTION":15.02529525,"ECCENTRICITY":0.00013597,"INCLINATION":42.9987,"RA_OF_ASC_NODE":115.68,"ARG_OF_PERICENTER":285.0563,"MEAN_ANOMALY":75.0129,"EPHEMERIS_TYPE":0,"CLASSIFICATION_TYPE":"U","NORAD_CAT_ID":58231,"ELEMENT_SET_NO":999,"REV_AT_EPOCH":10454,"BSTAR":-8.2536061e-5,"MEAN_MOTION_DOT":-1.318e-5,"MEAN_MOTION_DDOT":0},{"OBJECT_NAME":"STARLINK-30880","OBJECT_ID":"2023-171C","EPOCH":"2025-09-23T07:07:36.256224","MEAN_MOTION":15.0253531,"ECCENTRICITY":0.00011774,"INCLINATION":43.003,"RA_OF_ASC_NODE":115.7057,"ARG_OF_PERICENTER":260.5954,"MEAN_ANOMALY":99.4755,"EPHEMERIS_TYPE":0,"CLASSIFICATION_TYPE":"U","NORAD_CAT_ID":58232,"ELEMENT_SET_NO":999,"REV_AT_EPOCH":10454,"BSTAR":1.295546e-6,"MEAN_MOTION_DOT":-1.86e-6,"MEAN_MOTION_DDOT":0},{"OBJECT_NAME":"STARLINK-30777","OBJECT_ID":"2023-171D","EPOCH":"2025-09-25T05:33:18.450720","MEAN_MOTION":15.02533099,"ECCENTRICITY":0.0001107,"INCLINATION":43.0023,"RA_OF_ASC_NODE":105.2763,"ARG_OF_PERICENTER":268.2337,"MEAN_ANOMALY":91.8379,"EPHEMERIS_TYPE":0,"CLASSIFICATION_TYPE":"U","NORAD_CAT_ID":58233,"ELEMENT_SET_NO":999,"REV_AT_EPOCH":10483,"BSTAR":-1.012806e-5,"MEAN_MOTION_DOT":-3.4e-6,"MEAN_MOTION_DDOT":0},{"OBJECT_NAME":"STARLINK-30860","OBJECT_ID":"2023-171E","EPOCH":"2025-09-24T07:08:20.884416","MEAN_MOTION":15.0252022,"ECCENTRICITY":0.00011396,"INCLINATION":43.0033,"RA_OF_ASC_NODE":110.3088,"ARG_OF_PERICENTER":263.9632,"MEAN_ANOMALY":96.108,"EPHEMERIS_TYPE":0,"CLASSIFICATION_TYPE":"U","NORAD_CAT_ID":58234,"ELEMENT_SET_NO":999,"REV_AT_EPOCH":10469,"BSTAR":-9.5631711e-5,"MEAN_MOTION_DOT":-1.495e-5,"MEAN_MOTION_DDOT":0},{"OBJECT_NAME":"STARLINK-30853","OBJECT_ID":"2023-171G","EPOCH":"2025-09-25T05:38:05.604576","MEAN_MOTION":15.02545058,"ECCENTRICITY":0.00012219,"INCLINATION":43.0038,"RA_OF_ASC_NODE":105.2964,"ARG_OF_PERICENTER":263.8935,"MEAN_ANOMALY":96.1768,"EPHEMERIS_TYPE":0,"CLASSIFICATION_TYPE":"U","NORAD_CAT_ID":58236,"ELEMENT_SET_NO":999,"REV_AT_EPOCH":10483,"BSTAR":-3.8449511e-5,"MEAN_MOTION_DOT":-7.23e-6,"MEAN_MOTION_DDOT":0}]
